#dP2022 10  1 12  0  0.00000000      96 __u+U ITR00 EXT  IAC
## 2229 561600.00000000   900.00000000 59853 0.5000000000000
+  116   C06C07C08C09C10C11C12C13C14C16C19C20C21C22C23C24C25
+        C26C27C28C29C30C32C33C34C35C36C37C38C39C40C41C42C43
+        C44C45C46E01E02E03E04E05E07E08E09E10E11E12E13E14E15
+        E18E19E21E24E25E26E27E30E31E33E34E36G01G02G03G04G06
+        G07G08G09G10G11G12G13G14G15G16G17G18G19G20G21G22G23
+        G24G25G26G27G28G29G30G31G32J02J03R01R02R03R04R05R07
+        R08R09R11R12R13R14R15R17R18R19R20R21R24R25  0  0  0
++         9  8 10 10  8  0  9  9  7 10  9 10  7  9  9  8  6
++         8  9  9  8  8 10  8 10  8  8  7 10 10  9  8  8  7
++        10  9 10  8  7  7  8  7  7  8  6  8 10 11  7  8  8
++         8  8  8  8  6  7  8  8  9  7  6  8  8  8  7  8  6
++         8  7  8  7  7  7  7  7  6  8  7  7  7  8 10  7  7
++         7  7  8  7  8  7  7  8  6  9  8  8  9  8  9  9  9
++         8  9  8  8  8  8  7  8  8  8  9  9  7  8  0  0  0
%c M  cc GPS ccc cccc cccc cccc cccc ccccc ccccc ccccc ccccc
%c cc cc ccc ccc cccc cccc cccc cccc ccccc ccccc ccccc ccccc
%f  0.0000000  0.000000000  0.00000000000  0.000000000000000
%f  0.0000000  0.000000000  0.00000000000  0.000000000000000
%i    0    0    0    0      0      0      0      0         0
%i    0    0    0    0      0      0      0      0         0
/* IAC                                ULTRA-RAPID PREDICTION
/* S/V CLOCKS ARE ALIGNED TO GNSS TIME                      
/* G:C1WC2W R:C1PC2P E:C1XC5X C:C2IC6I J:C1CC2S             
/* PCV:IGS14_2218 OL/AL:FES2004  NONE     YN ORB:CoN CLK:CoN
*  2022 10 02  7 30  0.00000000
PC06  -1306.694168  31325.500620  28307.614371    907.617095
PC07 -16614.638725  27882.313483 -26938.089124   -220.096480
PC08 -13750.185606  39737.467489    850.350086    485.354553
PC09   6356.050125  35842.600741  22078.424029   -846.657497
PC10  -8750.517902  28295.785359 -29853.208343     89.335706
PC11   9415.013907  22630.292421 -13235.453926   -375.348888
PC12  -7118.000278  14306.877666 -22835.102806   -497.595669
PC13  -7619.226931  40400.223159   8776.794583     95.976959
PC14   1865.997044  15847.705911  22906.464290    692.112368
PC16  -4783.331206  28543.091175  30938.073719    133.155086
PC19 -12647.511429 -11997.900834 -21778.512023   -783.501518
PC20   7145.007097 -16883.306266 -21028.699276    887.078176
PC21 -24110.038764  11898.801333   7516.235404   -516.679561
PC22 -26070.035035    -12.393965  -9994.352603   -877.494475
PC23  15887.741849   3656.607528 -22638.735412   -358.817218
PC24  -7407.403306  26887.299719    289.910145   -417.062381
PC25   7315.078784  21048.005358 -16790.277311      3.781956
PC26 -15436.930035  17607.647581  15142.374452    -15.662955
PC27  14674.847214  -7345.152958  22552.721334     29.673723
PC28  22454.720718   9444.989384  13609.015416     19.591290
PC29 -17873.021927 -20996.889711   4306.792346     21.286738
PC30  -1668.543119 -20058.393396  19317.310151      0.273508
PC32  24059.682080 -12031.330154  -7408.404655   -777.354323
PC33  12588.487605  12019.474211  21806.177127   -808.017008
PC34   2724.648301  20566.868330 -18680.411621      7.610313
PC35 -22956.976140  -9824.716427 -12438.697412     23.106175
PC36  -6432.493539 -21657.562313  16413.984913   -487.002984
PC37  16175.499759 -16141.128181 -16016.675667   -377.156657
PC38 -17335.137675  37684.234309  -6972.309935     28.243743
PC39  -8084.319200  25088.124107  32965.663965     -0.545511
PC40 -23495.974757  21508.430700 -27729.772322     -5.238403
PC41  25867.244240    352.575852  10510.903473   -133.194079
PC42  -8422.254966  16979.177623  20522.776482   -399.168186
PC43  17319.365202  21308.997223  -5026.080797     17.368265
PC44 -14632.600439   7825.373459 -22443.401474     68.479677
PC45 -15871.823303  -3251.404139  22726.748497     -4.773661
PC46   6277.664111 -27178.808547   1391.880793     -3.615194
PE01 -23821.236858   8902.501289  15152.609956   -539.000655
PE02  23855.268747  -9093.405889 -14989.134448    328.228535
PE03  27791.913787    117.646615 -10181.329366   -605.631543
PE04 -14380.895260  12588.983830  22602.228757  -1127.821261
PE05  25160.345183  13055.275588   8523.094564   -138.484656
PE07  -7949.288174 -18188.659071 -21961.637503   -709.966201
PE08  14237.925382 -12539.838383 -22723.357957   -608.453767
PE09   7856.196217  18035.130836  22109.923359   -678.791806
PE10   -924.351883  26878.210635 -12355.345369   -480.817763
PE11   6191.600448  28856.466934  -2294.804881   1974.000429
PE12  -7557.585126  20867.067458 -19592.654897   -200.214434
PE13  -5734.792114 -28875.728243   3111.745187    430.644967
PE14   3962.683434 -15240.970797  18682.353029     16.023137
PE15   7593.769816 -20682.805744  19773.117333    716.709023
PE18 -13376.577492  15912.355569 -24055.258473   -909.324159
PE19 -28455.197188  -2132.231410   7861.935275  -4376.270853
PE21 -15200.625964  -8102.034120  24079.163372   -761.058562
PE24  -3695.144417  22146.739956 -19281.269934   -868.584621
PE25  14978.251989   8353.824582 -24112.983011   -589.137228
PE26 -15880.224252 -19329.901586 -15832.020210  -1679.643789
PE27   2691.204174 -21764.562353  19895.907369   -405.643545
PE30  19397.310863 -22133.202118   3244.626084   -883.160959
PE31 -18834.845687  22472.440388  -4020.335258   -504.821295
PE33 -16360.760300    329.919041 -24664.007779   -454.292405
PE34  16313.888256   -590.336048  24682.368176     -7.397979
PE36  15571.238108  20053.296632  15214.499825   -439.880904
PG01  13686.335405  -5302.967712  21799.304587    274.241708
PG02 -15016.570203    498.334756 -21270.365385   -643.971261
PG03  22448.984113 -10136.633354   9668.174517   -359.416751
PG04  22618.884875  -1251.349249 -13945.320399   -110.034898
PG06  -6750.472295 -25345.605233  -3850.962956    479.017766
PG07   7241.841371 -20341.470132 -14712.632381    302.626905
PG08  25767.552498   5264.077525   4864.596178    -87.053676
PG09  13557.764021 -10542.327313 -20350.023488   -288.700838
PG10  -5603.288890  19650.659739  16945.617559     -5.732487
PG11 -12043.803949 -19083.907209 -14035.087405    -21.496541
PG12 -23102.351296   8376.471900   9679.897577   -287.435858
PG13 -22935.925389 -13514.494789  -1640.820129    398.382741
PG14   8065.256759 -20068.718859  15349.893024    -98.947891
PG15 -26155.139697  -2556.620486   4370.116634    -24.295046
PG16  15395.652447   6877.463761 -20904.342838   -525.498615
PG17   -912.644351 -16218.236540  21441.123226    664.793768
PG18  -6562.392498  21375.173670 -14233.075457     28.981091
PG19 -12075.435903 -17748.945602  15567.115089    218.345376
PG20 -10152.019379 -11950.840677 -21441.019416    481.729552
PG21  16421.629491   4491.162926  21164.626297    158.654335
PG22  14295.006576  17677.614027  14297.861482    338.215032
PG23 -14668.473830  20455.152448   8256.204480     -0.667420
PG24 -15757.928579   1178.624670  21052.874099    115.138025
PG25 -19866.539820  17395.223724   -634.351029    378.118938
PG26   7443.154950  14347.922655 -21122.789734    230.886164
PG27  22452.207194  13088.226909  -6634.653216    204.313877
PG28   -443.489909 -17144.215621  20849.426001    333.611764
PG29 -15153.935457   8072.436721 -20330.858955   -556.353340
PG30   -261.743321 -25905.484811  -5118.424415   -537.202202
PG31   7358.220497  24756.583091  -5171.779121   -195.368096
PG32   5128.850930  16841.220720  20092.469112   -250.653093
PJ02 -34955.299014  23590.332809   4417.892272     -6.272652
PJ03 -20959.553883  21329.743420 -25130.805819     -2.316236
PR01 -21824.942572  -3797.121634 -12659.154393     15.620826
PR02 -24210.018667   4774.075682   6356.887426    -22.854347
PR03 -11783.101213  10492.539015  20059.868309     64.735842
PR04   6815.155216  10011.590856  22472.716278    159.675637
PR05  21793.099220   4293.334972  12572.131549    100.559071
PR07  11167.871828 -10559.709673 -20342.473311     41.887238
PR08  -6976.083257 -10046.767235 -22329.252267    -67.501026
PR09  14616.302939 -13001.170400 -16305.276647     79.811472
PR11   1425.459610 -20485.354915  15136.112765     25.772143
PR12  -9803.170014  -5059.452584  23029.405814     21.697526
PR13 -14473.174661  11692.923729  17439.331789    -27.401643
PR14 -10853.803175  23091.138792    413.350080     24.229065
PR15   -971.672038  19983.418906 -15801.450183     93.422330
PR17   -651.446168  15388.368088 -20308.172259    565.619006
PR18  10738.366902  21946.836837  -7383.806991     45.145964
PR19  15831.837612  18224.026098   8219.778934   -205.768291
PR20  12422.083950   1219.384618  22259.208230    -79.450575
PR21   -536.967198 -16466.513108  19488.371597   -338.303567
PR24 -12498.289330     29.194085 -22223.078517    117.945902
PR25 -10123.767492 -22440.127457   6695.186960     13.815639
EOF
